[{"OBJECT_NAME":"HAIYANG-2A","OBJECT_ID":"2011-043A","EPOCH":"2026-03-10T00:07:18.637248","MEAN_MOTION":13.78270863,"ECCENTRICITY":0.00014304,"INCLINATION":99.3421,"RA_OF_ASC_NODE":73.6029,"ARG_OF_PERICENTER":273.3888,"MEAN_ANOMALY":86.7099,"EPHEMERIS_TYPE":0,"CLASSIFICATION_TYPE":"U","NORAD_CAT_ID":37781,"ELEMENT_SET_NO":999,"REV_AT_EPOCH":73301,"BSTAR":-0.00021809434,"MEAN_MOTION_DOT":-2.64e-6,"MEAN_MOTION_DDOT":0},{"OBJECT_NAME":"SL-8 R\/B","OBJECT_ID":"1975-028B","EPOCH":"2026-03-09T22:36:42.492672","MEAN_MOTION":13.80808546,"ECCENTRICITY":0.00183297,"INCLINATION":82.9883,"RA_OF_ASC_NODE":250.7204,"ARG_OF_PERICENTER":165.6209,"MEAN_ANOMALY":304.1377,"EPHEMERIS_TYPE":0,"CLASSIFICATION_TYPE":"U","NORAD_CAT_ID":7737,"ELEMENT_SET_NO":999,"REV_AT_EPOCH":56337,"BSTAR":-2.3653745e-5,"MEAN_MOTION_DOT":-9.0e-8,"MEAN_MOTION_DDOT":0}]
